| satellites | [{"alt": 0, "country": "EU", "id": "31797", "inclination": 0, "line1": "1 31797U 07030A   26176.86437294  .00013773  00000+0  23455-3 0  9994", "line2": "2 31797  98.1043 282.3804 0002376 186.1150 174.0071 15.51535013 58283", "name": "SAR-LUPE 2", "type": "sar", "velocity": 0}, {"alt": 0, "country": "US", "id": "39088", "inclination": 0, "line1": "1 39088U 13009C   26176.80650763  .00000098  00000+0  49305-4 0  9999", "line2": "2 39088  98.4264 356.0576 0010406 218.4767 141.5678 14.35242739697814", "name": "SAPPHIRE", "type": "military", "velocity": 0}, {"alt": 0, "country": "US", "id": "65565", "inclination": 0, "line1": "1 65565U 25203A   26176.84207647  .00000104  00000+0  82637-4 0  9993", "line2": "2 65565  81.3029   2.7511 0006260 162.4701 197.6673 13.84278810 39893", "name": "PRAETORIAN SDA_602", "type": "military", "velocity": 0}, {"alt": 0, "country": "US", "id": "65566", "inclination": 0, "line1": "1 65566U 25203B   26176.65421488  .00000160  00000+0  13355-3 0  9996", "line2": "2 65566  81.3037   2.8470 0009792 164.5055 195.6403 13.83906195 39876", "name": "PRAETORIAN SDA_603", "type": "military", "velocity": 0}, {"alt": 0, "country": "US", "id": "65567", "inclination": 0, "line1": "1 65567U 25203C   26176.60683200  .00000078  00000+0  60635-4 0  9996", "line2": "2 65567  81.3052   3.3160 0005733 168.4892 191.6397 13.83048295 39842", "name": "PRAETORIAN SDA_604", "type": "military", "velocity": 0}, {"alt": 0, "country": "US", "id": "65568", "inclination": 0, "line1": "1 65568U 25203D   26176.85910867  .00000062  00000+0  45672-4 0  9993", "line2": "2 65568  81.3019   2.7375 0008563 159.9002 200.2493 13.83434882 39899", "name": "PRAETORIAN SDA_605", "type": "military", "velocity": 0}, {"alt": 0, "country": "US", "id": "65569", "inclination": 0, "line1": "1 65569U 25203E   26176.84315993  .00000066  00000+0  48928-4 0  9993", "line2": "2 65569  81.3052   2.9804 0006433 162.5037 197.6342 13.83198624 39880", "name": "PRAETORIAN SDA_606", "type": "military", "velocity": 0}, {"alt": 0, "country": "US", "id": "65570", "inclination": 0, "line1": "1 65570U 25203F   26176.84437825  .00000127  00000+0  10268-3 0  9997", "line2": "2 65570  81.3037   2.6259 0009187 164.2563 195.8881 13.84284887 39907", "name": "PRAETORIAN SDA_607", "type": "military", "velocity": 0}, {"alt": 0, "country": "US", "id": "65571", "inclination": 0, "line1": "1 65571U 25203G   26176.60778758  .00000036  00000+0  21513-4 0  9990", "line2": "2 65571  81.3006   3.0107 0006238 167.7905 192.3404 13.83817212 39853", "name": "PRAETORIAN SDA_608", "type": "military", "velocity": 0}, {"alt": 0, "country": "US", "id": "65572", "inclination": 0, "line1": "1 65572U 25203H   26176.61030948  .00000242  00000+0  20638-3 0  9999", "line2": "2 65572  81.3051   2.9902 0007157 163.0159 197.1239 13.84209073 39867", "name": "PRAETORIAN SDA_609", "type": "military", "velocity": 0}, {"alt": 0, "country": "US", "id": "65573", "inclination": 0, "line1": "1 65573U 25203J   26176.66012596  .00000075  00000+0  57060-4 0  9998", "line2": "2 65573  81.3007   2.9209 0007013 167.3131 192.8203 13.83768268 39865", "name": "PRAETORIAN SDA_610", "type": "military", "velocity": 0}, {"alt": 0, "country": "US", "id": "65574", "inclination": 0, "line1": "1 65574U 25203K   26176.66373429 -.00000028  00000+0 -36190-4 0  9995", "line2": "2 65574  81.3011   3.0896 0005782 170.6895 189.4369 13.83309832 39852", "name": "PRAETORIAN SDA_611", "type": "military", "velocity": 0}, {"alt": 0, "country": "US", "id": "65575", "inclination": 0, "line1": "1 65575U 25203L   26176.85948904  .00000224  00000+0  18791-3 0  9995", "line2": "2 65575  81.3030   2.4732 0009611 163.4213 196.7260 13.85040074 39915", "name": "PRAETORIAN SDA_612", "type": "military", "velocity": 0}, {"alt": 0, "country": "US", "id": "65576", "inclination": 0, "line1": "1 65576U 25203M   26176.60145385  .00000068  00000+0  51343-4 0  9998", "line2": "2 65576  81.2998   3.1504 0006025 161.3784 198.7594 13.82765805 39846", "name": "PRAETORIAN SDA_613", "type": "military", "velocity": 0}, {"alt": 0, "country": "US", "id": "65577", "inclination": 0, "line1": "1 65577U 25203N   26176.85030240  .00000070  00000+0  51849-4 0  9993", "line2": "2 65577  81.3013   2.5616 0007506 160.4449 199.6998 13.84777965 39914", "name": "PRAETORIAN SDA_614", "type": "military", "velocity": 0}, {"alt": 0, "country": "US", "id": "65578", "inclination": 0, "line1": "1 65578U 25203P   26176.61251132  .00000170  00000+0  14164-3 0  9992", "line2": "2 65578  81.3022   2.7513 0009367 162.8075 197.3401 13.84436379 39871", "name": "PRAETORIAN SDA_615", "type": "military", "velocity": 0}, {"alt": 0, "country": "US", "id": "65579", "inclination": 0, "line1": "1 65579U 25203Q   26176.59086955  .00000199  00000+0  17043-3 0  9999", "line2": "2 65579  81.3060   3.3075 0005711 168.9073 191.2210 13.83268975 39840", "name": "PRAETORIAN SDA_616", "type": "military", "velocity": 0}, {"alt": 0, "country": "US", "id": "65580", "inclination": 0, "line1": "1 65580U 25203R   26176.61319032  .00000044  00000+0  29308-4 0  9996", "line2": "2 65580  81.3035   3.1172 0007755 161.5099 198.6340 13.83150379 39851", "name": "PRAETORIAN SDA_617", "type": "military", "velocity": 0}, {"alt": 0, "country": "US", "id": "65581", "inclination": 0, "line1": "1 65581U 25203S   26176.57714321  .00000128  00000+0  10368-3 0  9990", "line2": "2 65581  81.3019   2.7106 0010125 164.8353 195.3109 13.84671252 39878", "name": "PRAETORIAN SDA_618", "type": "military", "velocity": 0}, {"alt": 0, "country": "US", "id": "65582", "inclination": 0, "line1": "1 65582U 25203T   26176.83523564  .00000179  00000+0  15098-3 0  9998", "line2": "2 65582  81.3046   2.7822 0008527 162.6079 197.5371 13.83805852 40521", "name": "PRAETORIAN SDA_619", "type": "military", "velocity": 0}, {"alt": 0, "country": "US", "id": "65583", "inclination": 0, "line1": "1 65583U 25203U   26176.64745497  .00000092  00000+0  72352-4 0  9990", "line2": "2 65583  81.3030   2.9780 0007947 158.7529 201.3959 13.83618782 39866", "name": "PRAETORIAN SDA_620", "type": "military", "velocity": 0}, {"alt": 0, "country": "US", "id": "65584", "inclination": 0, "line1": "1 65584U 25203V   26176.62012243  .00000075  00000+0  57240-4 0  9995", "line2": "2 65584  81.3021   2.9179 0007816 156.3515 203.8002 13.83802012 39860", "name": "PRAETORIAN SDA_621", "type": "military", "velocity": 0}, {"alt": 0, "country": "US", "id": "65585", "inclination": 0, "line1": "1 65585U 25203W   26176.59461292 -.00000059  00000+0 -64530-4 0  9998", "line2": "2 65585  81.3041   3.2481 0005697 172.2501 187.8744 13.83168246 39846", "name": "PRAETORIAN SDA_601", "type": "military", "velocity": 0}, {"alt": 0, "country": "EU", "id": "31598", "inclination": 0, "line1": "1 31598U 07023A   26176.82373074  .00003152  00000+0  27812-3 0  9997", "line2": "2 31598  97.8861   8.7522 0001832  91.2992 268.8440 14.97144700 31088", "name": "COSMO-SKYMED 1", "type": "sar", "velocity": 0}, {"alt": 0, "country": "EU", "id": "31698", "inclination": 0, "line1": "1 31698U 07026A   26175.56897117  .00001644  00000+0  81449-4 0  9991", "line2": "2 31698  97.4447 183.1695 0001626  88.3572 271.7849 15.19150427 54344", "name": "TERRASAR-X", "type": "sar", "velocity": 0}, {"alt": 0, "country": "US", "id": "32060", "inclination": 0, "line1": "1 32060U 07041A   26176.82600561  .00006794  00000+0  28040-3 0  9995", "line2": "2 32060  97.3880 296.4460 0001430 349.2427  10.8780 15.24354634 44197", "name": "WORLDVIEW-1 (WV-1)", "type": "optical", "velocity": 0}, {"alt": 0, "country": "CN", "id": "32289", "inclination": 0, "line1": "1 32289U 07055A   26176.85290829  .00002367  00000+0  24620-3 0  9990", "line2": "2 32289  97.8158 206.6455 0001926  81.0638 279.0798 14.90813491  7162", "name": "YAOGAN-3", "type": "sar", "velocity": 0}, {"alt": 0, "country": "EU", "id": "32376", "inclination": 0, "line1": "1 32376U 07059A   26176.80238656  .00000487  00000+0  67680-4 0  9991", "line2": "2 32376  97.8888   0.2754 0001361  88.1574 271.9794 14.82152015  3284", "name": "COSMO-SKYMED 2", "type": "sar", "velocity": 0}, {"alt": 0, "country": "IN", "id": "32783", "inclination": 0, "line1": "1 32783U 08021A   26176.84016567  .00001088  00000+0  15292-3 0  9991", "line2": "2 32783  97.7634 225.2537 0013360  83.9371 276.3363 14.79251506980086", "name": "CARTOSAT-2A", "type": "optical", "velocity": 0}, {"alt": 0, "country": "EU", "id": "33412", "inclination": 0, "line1": "1 33412U 08054A   26176.90791602  .00004738  00000+0  32009-3 0  9994", "line2": "2 33412  97.8275  35.6240 0014323 233.9330 126.0571 15.06998994958250", "name": "COSMO-SKYMED 3", "type": "sar", "velocity": 0}, {"alt": 0, "country": "CN", "id": "33446", "inclination": 0, "line1": "1 33446U 08061A   26176.80230669  .00000989  00000+0  12741-3 0  9994", "line2": "2 33446  97.9307 110.2489 0015383  46.9056 313.3442 14.83215733946941", "name": "YAOGAN-4", "type": "sar", "velocity": 0}, {"alt": 0, "country": "US", "id": "35946", "inclination": 0, "line1": "1 35946U 09055A   26176.86204981  .00000088  00000+0  43607-4 0  9995", "line2": "2 35946  98.4735 250.1919 0004256 180.5821 179.5362 14.37901662876894", "name": "WORLDVIEW-2 (WV-2)", "type": "optical", "velocity": 0}, {"alt": 0, "country": "CN", "id": "36110", "inclination": 0, "line1": "1 36110U 09069A   26176.68659134  .00000468  00000+0  71924-4 0  9993", "line2": "2 36110  98.0063  62.5008 0024989  15.1643 345.0311 14.78017696890881", "name": "YAOGAN-7", "type": "sar", "velocity": 0}, {"alt": 0, "country": "IN", "id": "36795", "inclination": 0, "line1": "1 36795U 10035A   26176.86606462  .00000521  00000+0  78206-4 0  9993", "line2": "2 36795  97.9954 227.3609 0011916 155.9659 204.2110 14.78670866861134", "name": "CARTOSAT-2B", "type": "optical", "velocity": 0}, {"alt": 0, "country": "CN", "id": "36834", "inclination": 0, "line1": "1 36834U 10038A   26176.91720089  .00001865  00000+0  22293-3 0  9994", "line2": "2 36834  97.8979 200.2517 0001753  86.9510  31.2857 14.85373669858501", "name": "YAOGAN-10", "type": "sar", "velocity": 0}, {"alt": 0, "country": "EU", "id": "37216", "inclination": 0, "line1": "1 37216U 10060A   26176.81505383  .00000985  00000+0  13033-3 0  9995", "line2": "2 37216  97.8894   0.2901 0001503  88.3549 271.7837 14.82153726845847", "name": "COSMO-SKYMED 4", "type": "sar", "velocity": 0}, {"alt": 0, "country": "TR", "id": "37791", "inclination": 0, "line1": "1 37791U 11044D   26176.84759124  .00000483  00000+0  92241-4 0  9995", "line2": "2 37791  98.0574 268.1126 0020831 161.2009 338.0244 14.68173489794455", "name": "RASAT", "type": "military", "velocity": 0}, {"alt": 0, "country": "EU", "id": "38012", "inclination": 0, "line1": "1 38012U 11076F   26176.85210646  .00000262  00000+0  66181-4 0  9998", "line2": "2 38012  98.1975 251.8389 0001755  90.4397  44.8144 14.58535512773259", "name": "PLEIADES 1A", "type": "optical", "velocity": 0}, {"alt": 0, "country": "CN", "id": "38038", "inclination": 0, "line1": "1 38038U 11079A   26176.85494418  .00000257  00000+0  98780-4 0  9994", "line2": "2 38038  98.4071 243.9826 0005177 285.8416 205.6940 14.38220430760456", "name": "ZIYUAN 1-02C (ZY 1-02C)", "type": "optical", "velocity": 0}, {"alt": 0, "country": "EU", "id": "39019", "inclination": 0, "line1": "1 39019U 12068A   26176.86050881  .00000283  00000+0  70795-4 0  9991", "line2": "2 39019  98.1946 251.7930 0001703  86.2220 273.9174 14.58565166722112", "name": "PLEIADES 1B", "type": "optical", "velocity": 0}, {"alt": 0, "country": "TR", "id": "39030", "inclination": 0, "line1": "1 39030U 12073A   26176.82865242  .00000292  00000+0  49743-4 0  9990", "line2": "2 39030  97.6823  13.8271 0001277  56.7927 303.3405 14.75549631725789", "name": "GOKTURK 2", "type": "military", "velocity": 0}, {"alt": 0, "country": "CN", "id": "39150", "inclination": 0, "line1": "1 39150U 13018A   26176.87272260  .00000096  00000+0  21077-4 0  9992", "line2": "2 39150  97.9093 248.7644 0015819 236.0906 123.8800 14.76543370709527", "name": "GAOFEN-1", "type": "optical", "velocity": 0}, {"alt": 0, "country": "US", "id": "39418", "inclination": 0, "line1": "1 39418U 13066C   26176.72274191  .00002920  00000+0  16824-3 0  9992", "line2": "2 39418  97.3812 225.8478 0019665 285.7521  74.1541 15.13017920689778", "name": "SKYSAT-A", "type": "optical", "velocity": 0}, {"alt": 0, "country": "EU", "id": "39634", "inclination": 0, "line1": "1 39634U 14016A   26176.87034447 -.00000282  00000+0 -50070-4 0  9995", "line2": "2 39634  98.1783 184.2761 0001391  82.2436 277.8922 14.59199347651282", "name": "SENTINEL-1A", "type": "military", "velocity": 0}, {"alt": 0, "country": "US", "id": "40072", "inclination": 0, "line1": "1 40072U 14037D   26176.86676874  .00001201  00000+0  13738-3 0  9990", "line2": "2 40072  98.3841 136.3265 0004236 243.9459 116.1320 14.88047756647253", "name": "SKYSAT-B", "type": "optical", "velocity": 0}, {"alt": 0, "country": "US", "id": "40115", "inclination": 0, "line1": "1 40115U 14048A   26176.85939189  .00000776  00000+0  97219-4 0  9993", "line2": "2 40115  97.8564 251.5725 0000284  19.0031 341.1194 14.85034755643195", "name": "WORLDVIEW-3 (WV-3)", "type": "optical", "velocity": 0}, {"alt": 0, "country": "CN", "id": "40118", "inclination": 0, "line1": "1 40118U 14049A   26176.82498944  .00000796  00000+0  10994-3 0  9999", "line2": "2 40118  98.0109 241.0243 0006682 194.7882 165.3135 14.80907827640516", "name": "GAOFEN-2", "type": "optical", "velocity": 0}, {"alt": 0, "country": "CN", "id": "40143", "inclination": 0, "line1": "1 40143U 14053A   26176.88139216  .00008733  00000+0  33675-3 0  9992", "line2": "2 40143  97.1476 216.7432 0009755  68.6547 291.5733 15.26493487656281", "name": "YAOGAN-21", "type": "sar", "velocity": 0}, {"alt": 0, "country": "CN", "id": "40275", "inclination": 0, "line1": "1 40275U 14063A   26176.85550874 -.00000036  00000+0  27712-4 0  9998", "line2": "2 40275 100.7734 328.2730 0006539 166.1314 193.9978 13.15531156560954", "name": "YAOGAN-22", "type": "sar", "velocity": 0}, {"alt": 0, "country": "CN", "id": "40310", "inclination": 0, "line1": "1 40310U 14072A   26176.82592100  .00000783  00000+0  12103-3 0  9998", "line2": "2 40310  98.1494 314.2376 0013266 234.2292 125.7685 14.76096588624991", "name": "YAOGAN-24", "type": "sar", "velocity": 0}, {"alt": 0, "country": "CN", "id": "40362", "inclination": 0, "line1": "1 40362U 14088A   26176.79839823  .00029382  00000+0  56865-3 0  9993", "line2": "2 40362  97.0640 176.8067 0005075  46.7172 313.4502 15.47680086639036", "name": "YAOGAN-26", "type": "sar", "velocity": 0}, {"alt": 0, "country": "KR", "id": "40536", "inclination": 0, "line1": "1 40536U 15014A   26176.86947947  .00031893  00000+0  45298-3 0  9999", "line2": "2 40536  97.6883 168.8681 0057140 143.4619 217.0553 15.54396442623168", "name": "KOMPSAT-3A", "type": "optical", "velocity": 0}, {"alt": 0, "country": "EU", "id": "40697", "inclination": 0, "line1": "1 40697U 15028A   26176.81609650  .00000142  00000+0  70862-4 0  9992", "line2": "2 40697  98.5683 251.5455 0001156  91.4171 268.7144 14.30817643574960", "name": "SENTINEL-2A", "type": "military", "velocity": 0}, {"alt": 0, "country": "CN", "id": "40701", "inclination": 0, "line1": "1 40701U 15030A   26176.82515799  .00030461  00000+0  61836-3 0  9999", "line2": "2 40701  97.6904  10.7158 0009358 157.1319 203.0348 15.46257716612781", "name": "GAOFEN-8", "type": "optical", "velocity": 0}, {"alt": 0, "country": "CN", "id": "40878", "inclination": 0, "line1": "1 40878U 15040A   26176.84697560  .00000223  00000+0  69808-3 0  9994", "line2": "2 40878 100.1154 162.8536 0007924 189.3994 170.6973 13.16071769518803", "name": "YAOGAN-27", "type": "sar", "velocity": 0}, {"alt": 0, "country": "CN", "id": "40894", "inclination": 0, "line1": "1 40894U 15047A   26176.83465053  .00000975  00000+0  12566-3 0  9991", "line2": "2 40894  97.6272 212.1364 0028815 110.7318 249.6988 14.82899328581479", "name": "GAOFEN-9 01", "type": "optical", "velocity": 0}, {"alt": 0, "country": "CN", "id": "41026", "inclination": 0, "line1": "1 41026U 15064A   26176.83907134  .00007440  00000+0  27853-3 0  9998", "line2": "2 41026  97.3078 314.9251 0011373 153.9050 206.2765 15.27523404592009", "name": "YAOGAN-28", "type": "sar", "velocity": 0}, {"alt": 0, "country": "CN", "id": "41038", "inclination": 0, "line1": "1 41038U 15069A   26176.88117752 -.00000226  00000+0 -21117-4 0  9995", "line2": "2 41038  98.0031 205.5275 0002178  40.1431 319.9943 14.83088991571918", "name": "YAOGAN-29", "type": "sar", "velocity": 0}, {"alt": 0, "country": "CN", "id": "41194", "inclination": 0, "line1": "1 41194U 15083A   26176.83114378 -.00000324  00000+0  00000+0 0  9991", "line2": "2 41194   0.3803  83.9151 0004035 114.0016 120.9663  1.00271100 38614", "name": "GAOFEN-4", "type": "optical", "velocity": 0}, {"alt": 0, "country": "EU", "id": "41335", "inclination": 0, "line1": "1 41335U 16011A   26176.84254146  .00000087  00000+0  53796-4 0  9999", "line2": "2 41335  98.6246 244.1018 0001432  97.2129 262.9215 14.26734833539299", "name": "SENTINEL-3A", "type": "military", "velocity": 0}, {"alt": 0, "country": "CN", "id": "41556", "inclination": 0, "line1": "1 41556U 16033A   26176.87234563  .00006001  00000+0  27114-3 0  9998", "line2": "2 41556  97.3838 252.4796 0012445 257.2436 102.7409 15.21256334559308", "name": "ZIYUAN 3-02 (ZY 3-02)", "type": "optical", "velocity": 0}, {"alt": 0, "country": "IN", "id": "41599", "inclination": 0, "line1": "1 41599U 16040A   26176.82060670  .00005382  00000+0  25820-3 0  9997", "line2": "2 41599  97.4485 236.6797 0010485 104.7973 255.4424 15.19254959555029", "name": "CARTOSAT-2C", "type": "optical", "velocity": 0}, {"alt": 0, "country": "US", "id": "41601", "inclination": 0, "line1": "1 41601U 16040C   26176.61830515  .00011011  00000+0  31178-3 0  9990", "line2": "2 41601  96.9565 207.8813 0002680  41.1254 319.0193 15.36434145559164", "name": "SKYSAT-C1", "type": "optical", "velocity": 0}, {"alt": 0, "country": "CN", "id": "41727", "inclination": 0, "line1": "1 41727U 16049A   26176.89498373 -.00000115  00000+0 -21804-4 0  9991", "line2": "2 41727  98.4014 184.5493 0001584  96.5932 263.5438 14.42215736519905", "name": "GAOFEN-3", "type": "optical", "velocity": 0}, {"alt": 0, "country": "US", "id": "41771", "inclination": 0, "line1": "1 41771U 16058B   26176.60259370  .00021050  00000+0  39235-3 0  9996", "line2": "2 41771  96.9174 198.0225 0001989 140.2489 219.8909 15.48836768546773", "name": "SKYSAT-C4", "type": "optical", "velocity": 0}, {"alt": 0, "country": "US", "id": "41772", "inclination": 0, "line1": "1 41772U 16058C   26176.64637003  .00009034  00000+0  27180-3 0  9998", "line2": "2 41772  97.0470 216.9092 0001109 229.1099 131.0049 15.34581947545045", "name": "SKYSAT-C5", "type": "optical", "velocity": 0}, {"alt": 0, "country": "US", "id": "41773", "inclination": 0, "line1": "1 41773U 16058D   26176.56490875  .00014923  00000+0  34879-3 0  9990", "line2": "2 41773  97.0170 198.3448 0003974  52.5285 307.6324 15.42248996546342", "name": "SKYSAT-C2", "type": "optical", "velocity": 0}, {"alt": 0, "country": "US", "id": "41774", "inclination": 0, "line1": "1 41774U 16058E   26176.58591493  .00026959  00000+0  43484-3 0  9995", "line2": "2 41774  96.9009 207.1097 0001259 117.9292 242.2090 15.52881901547412", "name": "SKYSAT-C3", "type": "optical", "velocity": 0}, {"alt": 0, "country": "TR", "id": "41875", "inclination": 0, "line1": "1 41875U 16073A   26176.86462608  .00000160  00000+0  40508-4 0  9991", "line2": "2 41875  98.1243  71.4026 0001427  78.3672 281.7690 14.62779456510090", "name": "GOKTURK 1A", "type": "military", "velocity": 0}, {"alt": 0, "country": "IN", "id": "41948", "inclination": 0, "line1": "1 41948U 17008A   26176.85256745  .00003943  00000+0  19021-3 0  9990", "line2": "2 41948  97.4105 235.9971 0004491 198.7115 161.3955 15.19264302518894", "name": "CARTOSAT-2D", "type": "optical", "velocity": 0}, {"alt": 0, "country": "EU", "id": "42063", "inclination": 0, "line1": "1 42063U 17013A   26176.80888708  .00000217  00000+0  99349-4 0  9993", "line2": "2 42063  98.5690 251.4620 0001181  86.6292 273.5026 14.30819562485874", "name": "SENTINEL-2B", "type": "military", "velocity": 0}, {"alt": 0, "country": "IN", "id": "42767", "inclination": 0, "line1": "1 42767U 17036C   26176.87022491  .00004083  00000+0  19710-3 0  9993", "line2": "2 42767  97.4274 236.5295 0002161 280.2486  79.8505 15.19226580499468", "name": "CARTOSAT-2E", "type": "optical", "velocity": 0}, {"alt": 0, "country": "EU", "id": "42969", "inclination": 0, "line1": "1 42969U 17064A   26176.80116920  .00000035  00000+0  37427-4 0  9991", "line2": "2 42969  98.7925 118.8713 0001019  89.4231 270.7061 14.19520277450784", "name": "SENTINEL-5P", "type": "military", "velocity": 0}, {"alt": 0, "country": "US", "id": "42987", "inclination": 0, "line1": "1 42987U 17068A   26176.66326669  .00031988  00000+0  42253-3 0  9995", "line2": "2 42987  97.4351 325.8655 0000465 125.3572 234.7728 15.58311114484565", "name": "SKYSAT-C11", "type": "optical", "velocity": 0}, {"alt": 0, "country": "US", "id": "42988", "inclination": 0, "line1": "1 42988U 17068B   26176.83373865  .00010230  00000+0  30581-3 0  9993", "line2": "2 42988  97.4510 313.7661 0001136 105.0954 255.0415 15.34773797483685", "name": "SKYSAT-C10", "type": "optical", "velocity": 0}, {"alt": 0, "country": "US", "id": "42989", "inclination": 0, "line1": "1 42989U 17068C   26176.35243978  .00015209  00000+0  36105-3 0  9991", "line2": "2 42989  97.4429 314.2930 0009578 107.5600 252.6693 15.41748726484014", "name": "SKYSAT-C9", "type": "optical", "velocity": 0}, {"alt": 0, "country": "US", "id": "42990", "inclination": 0, "line1": "1 42990U 17068D   26176.85699736  .00012059  00000+0  33388-3 0  9995", "line2": "2 42990  97.4526 313.6225 0001372  95.4455 264.6945 15.37134459483649", "name": "SKYSAT-C8", "type": "optical", "velocity": 0}, {"alt": 0, "country": "US", "id": "42991", "inclination": 0, "line1": "1 42991U 17068E   26176.85088892  .00012089  00000+0  33498-3 0  9996", "line2": "2 42991  97.4535 314.6062 0007086  81.5413 278.6634 15.37086816483708", "name": "SKYSAT-C7", "type": "optical", "velocity": 0}, {"alt": 0, "country": "US", "id": "42992", "inclination": 0, "line1": "1 42992U 17068F   26176.82148237  .00010263  00000+0  31324-3 0  9992", "line2": "2 42992  97.4571 314.5131 0005153 127.3170 232.8543 15.34102159483647", "name": "SKYSAT-C6", "type": "optical", "velocity": 0}, {"alt": 0, "country": "IN", "id": "43111", "inclination": 0, "line1": "1 43111U 18004A   26176.83667343  .00004774  00000+0  22957-3 0  9994", "line2": "2 43111  97.4788 236.3873 0001499 173.0397 187.0858 15.19276003468649", "name": "CARTOSAT-2F", "type": "optical", "velocity": 0}, {"alt": 0, "country": "CN", "id": "43259", "inclination": 0, "line1": "1 43259U 18031A   26176.83768677  .00000462  00000+0  73957-4 0  9996", "line2": "2 43259  98.0526 239.3407 0003060   9.6326 350.4942 14.76418347443977", "name": "GAOFEN-1 02", "type": "optical", "velocity": 0}, {"alt": 0, "country": "CN", "id": "43260", "inclination": 0, "line1": "1 43260U 18031B   26176.88350470  .00000105  00000+0  22492-4 0  9993", "line2": "2 43260  98.0515 239.2439 0003667  61.9264 298.2316 14.76436334443976", "name": "GAOFEN-1 03", "type": "optical", "velocity": 0}, {"alt": 0, "country": "CN", "id": "43262", "inclination": 0, "line1": "1 43262U 18031D   26176.85931920  .00000440  00000+0  70703-4 0  9997", "line2": "2 43262  98.0528 239.4115 0002048  66.8816 293.2610 14.76443634443966", "name": "GAOFEN-1 04", "type": "optical", "velocity": 0}, {"alt": 0, "country": "EU", "id": "43437", "inclination": 0, "line1": "1 43437U 18039A   26176.81568856  .00000094  00000+0  56727-4 0  9994", "line2": "2 43437  98.6245 244.2242 0000747 105.6935 254.4328 14.26736998425356", "name": "SENTINEL-3B", "type": "military", "velocity": 0}, {"alt": 0, "country": "CN", "id": "43461", "inclination": 0, "line1": "1 43461U 18043A   26176.83036939  .00000317  00000+0  75293-4 0  9997", "line2": "2 43461  98.4573 148.5982 0002923  68.4761 291.6750 14.60610977432955", "name": "GAOFEN-5 01", "type": "optical", "velocity": 0}, {"alt": 0, "country": "CN", "id": "43484", "inclination": 0, "line1": "1 43484U 18048A   26176.81301529  .00000286  00000+0  48573-4 0  9991", "line2": "2 43484  98.0567 239.4730 0011702 138.2342 221.9762 14.76423510434667", "name": "GAOFEN-6", "type": "optical", "velocity": 0}, {"alt": 0, "country": "CN", "id": "43585", "inclination": 0, "line1": "1 43585U 18063A   26176.85855527  .00015923  00000+0  23432-3 0  9996", "line2": "2 43585  97.1289 243.7142 0002213 316.2835  43.8245 15.55519886441695", "name": "GAOFEN-11 01", "type": "optical", "velocity": 0}, {"alt": 0, "country": "CN", "id": "44622", "inclination": 0, "line1": "1 44622U 19066A   26176.85740578  .00001121  00000+0  14460-3 0  9998", "line2": "2 44622  98.0499 130.4998 0007110 102.6625 257.5383 14.83017335363666", "name": "GAOFEN-10R", "type": "optical", "velocity": 0}, {"alt": 0, "country": "IN", "id": "44804", "inclination": 0, "line1": "1 44804U 19081A   26176.85117105  .00004666  00000+0  22449-3 0  9994", "line2": "2 44804  97.4305 238.5793 0013152 120.2395 240.0143 15.19194152364781", "name": "CARTOSAT-3", "type": "optical", "velocity": 0}, {"alt": 0, "country": "CN", "id": "44819", "inclination": 0, "line1": "1 44819U 19082A   26176.86612709  .00000378  00000+0  56003-4 0  9992", "line2": "2 44819  97.8101 183.0164 0001951  61.1768 298.9640 14.80465016355378", "name": "GAOFEN-12 01", "type": "optical", "velocity": 0}, {"alt": 0, "country": "EU", "id": "46984", "inclination": 0, "line1": "1 46984U 20086A   26176.82998828 -.00000074  00000+0 -55379-4 0  9998", "line2": "2 46984  66.0407 117.1015 0007873 270.0530  89.9583 12.80929977261436", "name": "SENTINEL-6A", "type": "military", "velocity": 0}, {"alt": 0, "country": "CN", "id": "48079", "inclination": 0, "line1": "1 48079U 21026A   26176.87811735  .00000335  00000+0  50866-4 0  9990", "line2": "2 48079  97.9923 175.0231 0004367 188.8492 171.2644 14.80302210283041", "name": "GAOFEN-12 02", "type": "optical", "velocity": 0}, {"alt": 0, "country": "EU", "id": "48268", "inclination": 0, "line1": "1 48268U 21034A   26176.82977223  .00000661  00000+0  90610-4 0  9992", "line2": "2 48268  97.8934 251.4721 0001451  87.8620 272.2759 14.81668923278935", "name": "PLEIADES NEO 3", "type": "optical", "velocity": 0}, {"alt": 0, "country": "EU", "id": "49070", "inclination": 0, "line1": "1 49070U 21073E   26176.79598639  .00000871  00000+0  11725-3 0  9995", "line2": "2 49070  97.8934 251.4352 0001377  85.9629 274.1741 14.81678649262641", "name": "PLEIADES NEO 4", "type": "optical", "velocity": 0}, {"alt": 0, "country": "CN", "id": "52912", "inclination": 0, "line1": "1 52912U 22069A   26176.84196361  .00000597  00000+0  85487-4 0  9994", "line2": "2 52912  97.8274  64.4935 0002287  93.8576 266.2898 14.80045358215890", "name": "GAOFEN-12 03", "type": "optical", "velocity": 0}, {"alt": 0, "country": "CN", "id": "57654", "inclination": 0, "line1": "1 57654U 23123A   26176.85773627  .00001564  00000+0  21489-3 0  9997", "line2": "2 57654  97.9115  94.7506 0003982  89.7692 270.3976 14.79741839153911", "name": "GAOFEN-12 04", "type": "optical", "velocity": 0}, {"alt": 0, "country": "EU", "id": "60989", "inclination": 0, "line1": "1 60989U 24157A   26176.70400723  .00000088  00000+0  50302-4 0  9995", "line2": "2 60989  98.5691 251.3657 0000944  87.6230 272.5061 14.30819964 94207", "name": "SENTINEL-2C", "type": "military", "velocity": 0}, {"alt": 0, "country": "EU", "id": "66514", "inclination": 0, "line1": "1 66514U 25264A   26176.83033618 -.00000073  00000+0 -50342-4 0  9994", "line2": "2 66514  66.0407 117.2268 0007963 269.0145  90.9958 12.80930000 28278", "name": "SENTINEL-6B", "type": "military", "velocity": 0}] |
